NORAD_CAT_ID,OBJECT_NAME,OBJECT_TYPE,EPOCH,MEAN_MOTION,ECCENTRICITY,INCLINATION,RA_OF_ASC_NODE,ARG_OF_PERICENTER,MEAN_ANOMALY,BSTAR,MEAN_MOTION_DOT,MEAN_MOTION_DDOT,TLE_LINE0,TLE_LINE1,TLE_LINE2,SEMIMAJOR_AXIS,PERIOD,APOGEE,PERIGEE,DECAYED
56496.0,STARLINK-5526,PAYLOAD,2024-04-23 04:32:17,14.98327901,0.0002486,70.004,32.7513,273.7528,86.3346,0.00043881,5.146e-05,0.0,0 STARLINK-5526,1 56496U 23064BA  24114.18909492  .00005146  00000-0  43881-3 0  9992,2 56496  70.0040  32.7513 0002486 273.7528  86.3346 14.98327901 53550,6950.199,96.107,573.792,570.337,0.0
56496.0,STARLINK-5526,PAYLOAD,2024-04-23 20:33:37,14.98340684,0.0002657,70.0034,31.0686,258.3327,101.7534,-0.00011035,-1.41e-05,0.0,0 STARLINK-5526,1 56496U 23064BA  24114.85668345 -.00001410  00000-0 -11035-3 0  9993,2 56496  70.0034  31.0686 0002657 258.3327 101.7534 14.98340684 54018,6950.16,96.106,573.872,570.178,0.0
56496.0,STARLINK-5526,PAYLOAD,2024-04-23 22:09:45,14.98340476,0.0002667,70.0034,30.9003,258.0888,101.9973,-0.00010405,-1.334e-05,0.0,0 STARLINK-5526,1 56496U 23064BA  24114.92344323 -.00001334  00000-0 -10405-3 0  9993,2 56496  70.0034  30.9003 0002667 258.0888 101.9973 14.98340476 53667,6950.16,96.106,573.879,570.172,0.0
56496.0,STARLINK-5526,PAYLOAD,2024-04-24 04:34:17,14.98343244,0.0002428,70.0037,30.2268,252.2706,107.8188,2.7719e-05,2.38e-06,0.0,0 STARLINK-5526,1 56496U 23064BA  24115.19048094  .00000238  00000-0  27719-4 0  9996,2 56496  70.0037  30.2268 0002428 252.2706 107.8188 14.98343244 53700,6950.152,96.106,573.704,570.329,0.0
56496.0,STARLINK-5526,PAYLOAD,2024-04-24 20:35:39,14.98316969,0.0001917,70.004,28.544,234.1679,125.9302,0.00072561,8.572e-05,0.0,0 STARLINK-5526,1 56496U 23064BA  24115.85809501  .00008572  00000-0  72561-3 0  9990,2 56496  70.0040  28.5440 0001917 234.1679 125.9302 14.98316969 54160,6950.233,96.108,573.431,570.766,0.0
56496.0,STARLINK-5526,PAYLOAD,2024-04-24 22:11:47,14.98317795,0.000192,70.0039,28.3754,235.8968,124.2009,0.00066808,7.885e-05,0.0,0 STARLINK-5526,1 56496U 23064BA  24115.92485479  .00007885  00000-0  66808-3 0  9995,2 56496  70.0039  28.3754 0001920 235.8968 124.2009 14.98317795 53812,6950.231,96.108,573.43,570.761,0.0
56496.0,STARLINK-5526,PAYLOAD,2024-04-25 04:36:19,14.98317268,0.0001697,70.0028,27.7021,238.7252,121.3741,0.00043406,5.088e-05,0.0,0 STARLINK-5526,1 56496U 23064BA  24116.19189445  .00005088  00000-0  43406-3 0  9991,2 56496  70.0028  27.7021 0001697 238.7252 121.3741 14.98317268 53859,6950.232,96.108,573.277,570.918,0.0
56496.0,STARLINK-5526,PAYLOAD,2024-04-25 20:37:39,14.98324522,0.0002415,70.0023,26.0188,245.7607,114.33,0.0002626,3.041e-05,0.0,0 STARLINK-5526,1 56496U 23064BA  24116.85948879  .00003041  00000-0  26260-3 0  9994,2 56496  70.0023  26.0188 0002415 245.7607 114.3300 14.98324522 54317,6950.21,96.107,573.753,570.396,0.0
56496.0,STARLINK-5526,PAYLOAD,2024-04-25 22:13:47,14.9833059,0.0002411,70.0022,25.8504,246.4449,113.6457,0.0001212,1.354e-05,0.0,0 STARLINK-5526,1 56496U 23064BA  24116.92624755  .00001354  00000-0  12120-3 0  9991,2 56496  70.0022  25.8504 0002411 246.4449 113.6457 14.98330590 53960,6950.191,96.107,573.732,570.38,0.0
56496.0,STARLINK-5526,PAYLOAD,2024-04-26 11:02:51,14.98338215,0.0002367,70.0014,24.5007,274.6088,85.4801,3.4734e-05,3.22e-06,0.0,0 STARLINK-5526,1 56496U 23064BA  24117.46032296  .00000322  00000-0  34734-4 0  9994,2 56496  70.0014  24.5007 0002367 274.6088  85.4801 14.98338215 54408,6950.167,96.106,573.678,570.387,0.0
56496.0,STARLINK-5526,PAYLOAD,2024-04-26 22:15:48,14.98335846,0.0002502,70.0007,23.3237,266.967,93.1203,9.6475e-05,1.059e-05,0.0,0 STARLINK-5526,1 56496U 23064BA  24117.92764287  .00001059  00000-0  96475-4 0  9995,2 56496  70.0007  23.3237 0002502 266.9670  93.1203 14.98335846 54111,6950.175,96.107,573.779,570.301,0.0
56496.0,STARLINK-5526,PAYLOAD,2024-04-27 11:04:52,14.98334742,0.0002508,70.001,21.9757,274.4138,85.6735,-3.8384e-05,-5.51e-06,0.0,0 STARLINK-5526,1 56496U 23064BA  24118.46172410 -.00000551  00000-0 -38384-4 0  9999,2 56496  70.0010  21.9757 0002508 274.4138  85.6735 14.98334742 54553,6950.178,96.107,573.786,570.3,0.0
56496.0,STARLINK-5526,PAYLOAD,2024-04-27 20:41:42,14.98316648,0.0002836,70.0005,20.967,270.7927,89.2907,-0.00010343,-1.326e-05,0.0,0 STARLINK-5526,1 56496U 23064BA  24118.86229818 -.00001326  00000-0 -10343-3 0  9993,2 56496  70.0005  20.9670 0002836 270.7927  89.2907 14.98316648 54612,6950.234,96.108,574.07,570.128,0.0
56496.0,STARLINK-5526,PAYLOAD,2024-04-27 22:17:50,14.9831806,0.000279,70.0003,20.798,271.028,89.0559,-9.0904e-05,-1.177e-05,0.0,0 STARLINK-5526,1 56496U 23064BA  24118.92905739 -.00001177  00000-0 -90904-4 0  9999,2 56496  70.0003  20.7980 0002790 271.0280  89.0559 14.98318060 54269,6950.23,96.108,574.034,570.156,0.0
56496.0,STARLINK-5526,PAYLOAD,2024-04-28 03:06:14,14.98322329,0.0002705,70.0003,20.2928,271.5406,88.5443,-4.1085e-05,-5.83e-06,0.0,0 STARLINK-5526,1 56496U 23064BA  24119.12933459 -.00000583  00000-0 -41085-4 0  9998,2 56496  70.0003  20.2928 0002705 271.5406  88.5443 14.98322329 54659,6950.217,96.107,573.962,570.202,0.0
56496.0,STARLINK-5526,PAYLOAD,2024-04-28 11:06:54,14.98329053,0.000275,70.0004,19.4514,271.4164,88.668,1.5603e-05,9.3e-07,0.0,0 STARLINK-5526,1 56496U 23064BA  24119.46312993  .00000093  00000-0  15603-4 0  9990,2 56496  70.0004  19.4514 0002750 271.4164  88.6680 14.98329053 54702,6950.196,96.107,573.972,570.15,0.0
56496.0,STARLINK-5526,PAYLOAD,2024-04-28 22:19:50,14.98329823,0.0002867,70.0002,18.2728,270.2482,89.8349,0.00011683,1.301e-05,0.0,0 STARLINK-5526,1 56496U 23064BA  24119.93044843  .00001301  00000-0  11683-3 0  9994,2 56496  70.0002  18.2728 0002867 270.2482  89.8349 14.98329823 54411,6950.193,96.107,574.051,570.066,0.0
56496.0,STARLINK-5526,PAYLOAD,2024-04-29 03:08:14,14.98336167,0.0002881,70.0013,17.7682,270.1283,89.9546,0.00017441,1.989e-05,0.0,0 STARLINK-5526,1 56496U 23064BA  24120.13072520  .00001989  00000-0  17441-3 0  9991,2 56496  70.0013  17.7682 0002881 270.1283  89.9546 14.98336167 54802,6950.174,96.107,574.041,570.036,0.0
56496.0,STARLINK-5526,PAYLOAD,2024-04-29 22:21:51,14.98339924,0.0003016,70.0018,15.748,270.7628,89.3186,0.00040901,4.792e-05,0.0,0 STARLINK-5526,1 56496U 23064BA  24120.93184517  .00004792  00000-0  40901-3 0  9991,2 56496  70.0018  15.7480 0003016 270.7628  89.3186 14.98339924 54562,6950.162,96.106,574.123,569.931,0.0
56496.0,STARLINK-5526,PAYLOAD,2024-04-30 03:10:15,14.98345497,0.0003062,70.0018,15.2431,270.4074,89.6734,0.00047009,5.523e-05,0.0,0 STARLINK-5526,1 56496U 23064BA  24121.13212222  .00005523  00000-0  47009-3 0  9998,2 56496  70.0018  15.2431 0003062 270.4074  89.6734 14.98345497 54953,6950.145,96.106,574.138,569.882,0.0
56496.0,STARLINK-5526,PAYLOAD,2024-04-30 09:34:47,14.98339389,0.0002932,70.0022,14.5697,272.2655,87.8168,0.00016211,1.842e-05,0.0,0 STARLINK-5526,1 56496U 23064BA  24121.39916257  .00001842  00000-0  16211-3 0  9996,2 56496  70.0022  14.5697 0002932 272.2655  87.8168 14.98339389 54633,6950.164,96.106,574.067,569.991,0.0
56496.0,STARLINK-5526,PAYLOAD,2024-04-30 20:47:44,14.9833403,0.0002855,70.002,13.3919,272.7514,87.3318,7.1069e-05,7.55e-06,0.0,0 STARLINK-5526,1 56496U 23064BA  24121.86648530  .00000755  00000-0  71069-4 0  9999,2 56496  70.0020  13.3919 0002855 272.7514  87.3318 14.98334030 55066,6950.18,96.107,574.03,570.061,0.0
56496.0,STARLINK-5526,PAYLOAD,2024-04-30 22:23:52,14.98332964,0.0002863,70.0019,13.2234,272.2416,87.8415,4.1203e-05,3.99e-06,0.0,0 STARLINK-5526,1 56496U 23064BA  24121.93324548  .00000399  00000-0  41203-4 0  9998,2 56496  70.0019  13.2234 0002863 272.2416  87.8415 14.98332964 54716,6950.184,96.107,574.039,570.059,0.0
56496.0,STARLINK-5526,PAYLOAD,2024-05-01 09:36:48,14.98337882,0.0002757,70.0009,12.046,265.8434,94.241,0.00013699,1.542e-05,0.0,0 STARLINK-5526,1 56496U 23064BA  24122.40056353  .00001542  00000-0  13699-3 0  9995,2 56496  70.0009  12.0460 0002757 265.8434  94.2410 14.98337882 54781,6950.169,96.106,573.95,570.117,0.0
56496.0,STARLINK-5526,PAYLOAD,2024-05-01 22:25:52,14.98342649,0.0002793,70.0007,10.6993,265.6172,94.4668,0.00015678,1.779e-05,0.0,0 STARLINK-5526,1 56496U 23064BA  24122.93463639  .00001779  00000-0  15678-3 0  9993,2 56496  70.0007  10.6993 0002793 265.6172  94.4668 14.98342649 54864,6950.154,96.106,573.96,570.078,0.0
56496.0,STARLINK-5526,PAYLOAD,2024-05-02 01:38:08,14.98343004,0.0002796,70.0006,10.3626,265.7892,94.2948,0.00015259,1.729e-05,0.0,0 STARLINK-5526,1 56496U 23064BA  24123.06815522  .00001729  00000-0  15259-3 0  9990,2 56496  70.0006  10.3626 0002796 265.7892  94.2948 14.98343004 55244,6950.153,96.106,573.961,570.074,0.0
56496.0,STARLINK-5526,PAYLOAD,2024-05-02 09:38:49,14.98333671,0.0002889,70.0004,9.521,260.043,100.0403,0.0001632,1.855e-05,0.0,0 STARLINK-5526,1 56496U 23064BA  24123.40195967  .00001855  00000-0  16320-3 0  9992,2 56496  70.0004   9.5210 0002889 260.0430 100.0403 14.98333671 55296,6950.182,96.107,574.054,570.039,0.0
56496.0,STARLINK-5526,PAYLOAD,2024-05-02 20:51:46,14.98327452,0.00029,70.0001,8.3427,270.6287,89.454,5.4736e-05,5.6e-06,0.0,0 STARLINK-5526,1 56496U 23064BA  24123.86928400  .00000560  00000-0  54736-4 0  9994,2 56496  70.0001   8.3427 0002900 270.6287  89.4540 14.98327452 55361,6950.201,96.107,574.081,570.05,0.0
56496.0,STARLINK-5526,PAYLOAD,2024-05-03 01:40:09,14.98333696,0.000286,70.0001,7.8378,271.0632,89.02,0.00010796,1.196e-05,0.0,0 STARLINK-5526,1 56496U 23064BA  24124.06955853  .00001196  00000-0  10796-3 0  9992,2 56496  70.0001   7.8378 0002860 271.0632  89.0200 14.98333696 55393,6950.181,96.107,574.034,570.059,0.0
56496.0,STARLINK-5526,PAYLOAD,2024-05-03 09:40:50,14.98335007,0.0002704,70.0002,6.9971,274.1647,85.9203,6.5286e-05,6.86e-06,0.0,0 STARLINK-5526,1 56496U 23064BA  24124.40335876  .00000686  00000-0  65286-4 0  9995,2 56496  70.0002   6.9971 0002704 274.1647  85.9203 14.98335007 55082,6950.177,96.107,573.922,570.163,0.0
